{
  "type": "FeatureCollection",
  "features": [
    {
      "type": "Feature",
      "properties": {
        "norad_id": 36182,
        "name": "FENGYUN 1C DEB",
        "group": "fengyun-1c-debris",
        "lat": 79.92517198288726,
        "lon": 156.024544003754,
        "alt_km": 753.5150477923089,
        "timestamp": "2025-12-10T07:43:55.067137+00:00",
        "meta_object_name": "FENGYUN 1C DEB",
        "meta_object_id": "1999-025DTF",
        "meta_epoch": "2025-12-09T12:53:00.896352",
        "meta_mean_motion": 14.3467895,
        "meta_eccentricity": 0.0021656,
        "meta_inclination": 99.088,
        "meta_ra_of_asc_node": 270.9251,
        "meta_arg_of_pericenter": 84.6861,
        "meta_mean_anomaly": 275.6792,
        "meta_ephemeris_type": 0,
        "meta_classification_type": "U",
        "meta_norad_cat_id": 36182,
        "meta_element_set_no": 999,
        "meta_rev_at_epoch": 87911,
        "meta_bstar": 0.0023397,
        "meta_mean_motion_dot": 6.596e-05,
        "meta_mean_motion_ddot": 0,
        "tle_line1": "1 36182U 99025DTF 25343.53681593  .00006596  00000+0  23397-2 0  9993",
        "tle_line2": "2 36182  99.0880 270.9251 0021656  84.6861 275.6792 14.34678950879116"
      },
      "geometry": {
        "type": "Point",
        "coordinates": [
          156.024544003754,
          79.92517198288726
        ]
      }
    },
    {
      "type": "Feature",
      "properties": {
        "norad_id": 36186,
        "name": "FENGYUN 1C DEB",
        "group": "fengyun-1c-debris",
        "lat": 12.672158836174788,
        "lon": -154.8181401091897,
        "alt_km": 526.4213099742583,
        "timestamp": "2025-12-10T07:43:55.067148+00:00",
        "meta_object_name": "FENGYUN 1C DEB",
        "meta_object_id": "1999-025DTK",
        "meta_epoch": "2025-12-06T21:01:26.135616",
        "meta_mean_motion": 15.09149878,
        "meta_eccentricity": 0.00147295,
        "meta_inclination": 98.9889,
        "meta_ra_of_asc_node": 203.1836,
        "meta_arg_of_pericenter": 349.9169,
        "meta_mean_anomaly": 20.7197,
        "meta_ephemeris_type": 0,
        "meta_classification_type": "U",
        "meta_norad_cat_id": 36186,
        "meta_element_set_no": 999,
        "meta_rev_at_epoch": 61482,
        "meta_bstar": 0.015546812,
        "meta_mean_motion_dot": 0.00256087,
        "meta_mean_motion_ddot": 0,
        "tle_line1": "1 36186U 99025DTK 25340.87599694  .00256087  00000+0  15547-1 0  9990",
        "tle_line2": "2 36186  98.9889 203.1836 0014729 349.9169  20.7197 15.09149878614823"
      },
      "geometry": {
        "type": "Point",
        "coordinates": [
          -154.8181401091897,
          12.672158836174788
        ]
      }
    },
    {
      "type": "Feature",
      "properties": {
        "norad_id": 36188,
        "name": "FENGYUN 1C DEB",
        "group": "fengyun-1c-debris",
        "lat": -64.61902625409621,
        "lon": 103.22887706584463,
        "alt_km": 666.678199488957,
        "timestamp": "2025-12-10T07:43:55.067157+00:00",
        "meta_object_name": "FENGYUN 1C DEB",
        "meta_object_id": "1999-025DTM",
        "meta_epoch": "2025-12-06T00:26:45.096864",
        "meta_mean_motion": 14.6043913,
        "meta_eccentricity": 0.0047401,
        "meta_inclination": 98.5867,
        "meta_ra_of_asc_node": 80.1988,
        "meta_arg_of_pericenter": 325.7511,
        "meta_mean_anomaly": 34.0633,
        "meta_ephemeris_type": 0,
        "meta_classification_type": "U",
        "meta_norad_cat_id": 36188,
        "meta_element_set_no": 999,
        "meta_rev_at_epoch": 87954,
        "meta_bstar": 0.0036772102,
        "meta_mean_motion_dot": 0.0001809,
        "meta_mean_motion_ddot": 0,
        "tle_line1": "1 36188U 99025DTM 25340.01857751  .00018090  00000+0  36772-2 0  9993",
        "tle_line2": "2 36188  98.5867  80.1988 0047401 325.7511  34.0633 14.60439130879548"
      },
      "geometry": {
        "type": "Point",
        "coordinates": [
          103.22887706584463,
          -64.61902625409621
        ]
      }
    },
    {
      "type": "Feature",
      "properties": {
        "norad_id": 36198,
        "name": "FENGYUN 1C DEB",
        "group": "fengyun-1c-debris",
        "lat": 64.07258990285496,
        "lon": -148.03618650990407,
        "alt_km": 790.5749264080268,
        "timestamp": "2025-12-10T07:43:55.067168+00:00",
        "meta_object_name": "FENGYUN 1C DEB",
        "meta_object_id": "1999-025DTX",
        "meta_epoch": "2025-12-06T12:47:36.841920",
        "meta_mean_motion": 14.07854185,
        "meta_eccentricity": 0.00971183,
        "meta_inclination": 98.6232,
        "meta_ra_of_asc_node": 10.1569,
        "meta_arg_of_pericenter": 132.8086,
        "meta_mean_anomaly": 228.1301,
        "meta_ephemeris_type": 0,
        "meta_classification_type": "U",
        "meta_norad_cat_id": 36198,
        "meta_element_set_no": 999,
        "meta_rev_at_epoch": 63500,
        "meta_bstar": 0.002549244,
        "meta_mean_motion_dot": 4.475e-05,
        "meta_mean_motion_ddot": 0,
        "tle_line1": "1 36198U 99025DTX 25340.53306530  .00004475  00000+0  25492-2 0  9994",
        "tle_line2": "2 36198  98.6232  10.1569 0097118 132.8086 228.1301 14.07854185635009"
      },
      "geometry": {
        "type": "Point",
        "coordinates": [
          -148.03618650990407,
          64.07258990285496
        ]
      }
    },
    {
      "type": "Feature",
      "properties": {
        "norad_id": 36199,
        "name": "FENGYUN 1C DEB",
        "group": "fengyun-1c-debris",
        "lat": 42.19358187150958,
        "lon": -166.826000046812,
        "alt_km": 758.3039888395688,
        "timestamp": "2025-12-10T07:43:55.067178+00:00",
        "meta_object_name": "FENGYUN 1C DEB",
        "meta_object_id": "1999-025DTY",
        "meta_epoch": "2025-12-09T19:20:37.527360",
        "meta_mean_motion": 14.2964382,
        "meta_eccentricity": 0.0092978,
        "meta_inclination": 98.2902,
        "meta_ra_of_asc_node": 5.0872,
        "meta_arg_of_pericenter": 76.0734,
        "meta_mean_anomaly": 285.0769,
        "meta_ephemeris_type": 0,
        "meta_classification_type": "U",
        "meta_norad_cat_id": 36199,
        "meta_element_set_no": 999,
        "meta_rev_at_epoch": 64938,
        "meta_bstar": 0.00042592,
        "meta_mean_motion_dot": 1.103e-05,
        "meta_mean_motion_ddot": 0,
        "tle_line1": "1 36199U 99025DTY 25343.80598990  .00001103  00000+0  42592-3 0  9997",
        "tle_line2": "2 36199  98.2902   5.0872 0092978  76.0734 285.0769 14.29643820649380"
      },
      "geometry": {
        "type": "Point",
        "coordinates": [
          -166.826000046812,
          42.19358187150958
        ]
      }
    },
    {
      "type": "Feature",
      "properties": {
        "norad_id": 36200,
        "name": "FENGYUN 1C DEB",
        "group": "fengyun-1c-debris",
        "lat": 30.3590339631392,
        "lon": 52.40740112351576,
        "alt_km": 673.3476209310329,
        "timestamp": "2025-12-10T07:43:55.067188+00:00",
        "meta_object_name": "FENGYUN 1C DEB",
        "meta_object_id": "1999-025DTZ",
        "meta_epoch": "2025-12-07T03:51:08.362944",
        "meta_mean_motion": 14.58359228,
        "meta_eccentricity": 0.00334809,
        "meta_inclination": 99.3875,
        "meta_ra_of_asc_node": 54.4014,
        "meta_arg_of_pericenter": 25.778,
        "meta_mean_anomaly": 334.5075,
        "meta_ephemeris_type": 0,
        "meta_classification_type": "U",
        "meta_norad_cat_id": 36200,
        "meta_element_set_no": 999,
        "meta_rev_at_epoch": 73279,
        "meta_bstar": 0.0062871133,
        "meta_mean_motion_dot": 0.00029404,
        "meta_mean_motion_ddot": 0,
        "tle_line1": "1 36200U 99025DTZ 25341.16051346  .00029404  00000+0  62871-2 0  9991",
        "tle_line2": "2 36200  99.3875  54.4014 0033480  25.7780 334.5075 14.58359228732791"
      },
      "geometry": {
        "type": "Point",
        "coordinates": [
          52.40740112351576,
          30.3590339631392
        ]
      }
    },
    {
      "type": "Feature",
      "properties": {
        "norad_id": 36203,
        "name": "FENGYUN 1C DEB",
        "group": "fengyun-1c-debris",
        "lat": -10.307455900545296,
        "lon": 106.11616578813016,
        "alt_km": 590.4237071498783,
        "timestamp": "2025-12-10T07:43:55.067197+00:00",
        "meta_object_name": "FENGYUN 1C DEB",
        "meta_object_id": "1999-025DUC",
        "meta_epoch": "2025-12-08T14:16:01.371648",
        "meta_mean_motion": 14.78297245,
        "meta_eccentricity": 0.0083233,
        "meta_inclination": 99.0964,
        "meta_ra_of_asc_node": 285.836,
        "meta_arg_of_pericenter": 161.4127,
        "meta_mean_anomaly": 199.0151,
        "meta_ephemeris_type": 0,
        "meta_classification_type": "U",
        "meta_norad_cat_id": 36203,
        "meta_element_set_no": 999,
        "meta_rev_at_epoch": 63368,
        "meta_bstar": 0.0016876,
        "meta_mean_motion_dot": 0.00012947,
        "meta_mean_motion_ddot": 0,
        "tle_line1": "1 36203U 99025DUC 25342.59446032  .00012947  00000+0  16876-2 0  9990",
        "tle_line2": "2 36203  99.0964 285.8360 0083233 161.4127 199.0151 14.78297245633687"
      },
      "geometry": {
        "type": "Point",
        "coordinates": [
          106.11616578813016,
          -10.307455900545296
        ]
      }
    }
  ]
}